[{"OBJECT_NAME":"STARLINK-30494","OBJECT_ID":"2023-151G","EPOCH":"2026-03-09T08:39:06.366240","MEAN_MOTION":15.28417441,"ECCENTRICITY":0.00011553,"INCLINATION":43.0027,"RA_OF_ASC_NODE":192.4566,"ARG_OF_PERICENTER":241.5536,"MEAN_ANOMALY":118.52,"EPHEMERIS_TYPE":0,"CLASSIFICATION_TYPE":"U","NORAD_CAT_ID":57970,"ELEMENT_SET_NO":999,"REV_AT_EPOCH":13740,"BSTAR":-3.569111e-5,"MEAN_MOTION_DOT":-1.272e-5,"MEAN_MOTION_DDOT":0},{"OBJECT_NAME":"STARLINK-32824","OBJECT_ID":"2025-018M","EPOCH":"2026-03-09T21:38:18.031776","MEAN_MOTION":15.30188443,"ECCENTRICITY":9.957e-5,"INCLINATION":53.1589,"RA_OF_ASC_NODE":308.4072,"ARG_OF_PERICENTER":70.2331,"MEAN_ANOMALY":289.8777,"EPHEMERIS_TYPE":0,"CLASSIFICATION_TYPE":"U","NORAD_CAT_ID":62817,"ELEMENT_SET_NO":999,"REV_AT_EPOCH":6415,"BSTAR":0.00054845188,"MEAN_MOTION_DOT":0.00015913,"MEAN_MOTION_DDOT":0}]
